[{"OBJECT_NAME":"STARLINK-31336","OBJECT_ID":"2024-027P","EPOCH":"2026-03-09T22:40:37.119648","MEAN_MOTION":15.30189602,"ECCENTRICITY":0.00011028,"INCLINATION":53.1596,"RA_OF_ASC_NODE":308.6965,"ARG_OF_PERICENTER":124.7203,"MEAN_ANOMALY":235.3902,"EPHEMERIS_TYPE":0,"CLASSIFICATION_TYPE":"U","NORAD_CAT_ID":58944,"ELEMENT_SET_NO":999,"REV_AT_EPOCH":11735,"BSTAR":8.6423365e-5,"MEAN_MOTION_DOT":2.201e-5,"MEAN_MOTION_DDOT":0},{"OBJECT_NAME":"KUIPER-00180","OBJECT_ID":"2026-030E","EPOCH":"2026-03-09T22:29:40.634304","MEAN_MOTION":15.31865817,"ECCENTRICITY":0.00157227,"INCLINATION":51.8823,"RA_OF_ASC_NODE":218.464,"ARG_OF_PERICENTER":75.5448,"MEAN_ANOMALY":284.728,"EPHEMERIS_TYPE":0,"CLASSIFICATION_TYPE":"U","NORAD_CAT_ID":67768,"ELEMENT_SET_NO":999,"REV_AT_EPOCH":512,"BSTAR":0.011360708,"MEAN_MOTION_DOT":0.00373574,"MEAN_MOTION_DDOT":0}]
